DO-64
1 32789U 08021G   17348.24736015  .00001866  00000-0  13356-3 0  9993
2 32789 097.5378 042.5398 0012190 203.0825 156.9855 15.05579367523854
CO-66
1 32791U 08021J   17348.51921204  .00000348  00000-0  41094-4 0  9997
2 32791 097.5491 009.3501 0011919 273.7306 086.2549 14.90417547521921
RS-30
1 32953U 08025A   17348.81034574  .00000007  00000-0 -22359-4 0  9995
2 32953  82.5019 127.3481 0018631 250.2207 109.6864 12.43080687433869
PRISM
1 33493U 09002B   17348.64379583  .00000605  00000-0  59572-4 0  9994
2 33493  98.1463 238.4756 0014682 202.1609 157.8985 14.95992036482758
NOAA-19
1 33591U 09005A   17348.58243586  .00000091  00000-0  74364-4 0  9997
2 33591  99.1181 318.1907 0014744 122.9709 237.2881 14.12237229456123
TISAT-1
1 36799U 10035E   17348.59623992  .00000382  00000-0  45048-4 0  9999
2 36799 098.0826 115.2483 0013716 094.9861 265.2922 14.90636490402453
JUGNU
1 37839U 11058B   17348.49123207  .00000307  00000-0  22157-4 0  9997
2 37839 019.9620 077.1930 0019070 011.2896 085.3984 14.12604104319115
SRMSAT
1 37841U 11058D   17348.52290295  .00000305  00000-0  22317-4 0  9992
2 37841 019.9712 122.3968 0011729 262.4772 164.3512 14.10594345318689
AO-71
1 37854U 11061E   17348.81675083  .00001104  00000-0  66107-4 0  9997
2 37854 101.7053 314.3682 0164967 260.0457  98.2101 15.04929116334098
HRBE
1 37855U 11061F   17348.81789279  .00001117  00000-0  65694-4 0  9995
2 37855 101.7167 312.0515 0177893 267.6549  90.4286 15.03898663333933
ALMASAT-1
1 38078U 12006B   17348.80318579  .00031004  38729-5  31130-3 0  9992
2 38078  69.4355   3.3075 0275208  22.5208  29.2925 15.31016922312343
HORYU-2
1 38340U 12025D   17348.55355827  .00000258  00000-0  46062-4 0  9998
2 38340 098.3757 358.8456 0012822 079.9171 280.3483 14.75465102289470
RS-40
1 38735U 12041C   17348.56873187  .00000024  00000-0  10186-3 0  9997
2 38735 082.4758 211.7152 0017123 358.1808 001.9207 12.42575765244078
BEESAT-3
1 39134U 13015E   17348.51438517  .00001756  00000-0  93271-4 0  9992
2 39134 064.8644 004.0454 0030096 236.3114 123.5142 15.18614776256477
BEESAT-2
1 39136U 13015G   17348.47536079  .00001185  00000-0  71498-4 0  9994
2 39136  64.8702  17.4778 0032480 258.2648 101.4833 15.15716335256591
ZACUBE-1
1 39417U 13066B   17348.58279330  .00000272  00000-0  40727-4 0  9995
2 39417 097.6090 021.8731 0060107 040.8621 319.7075 14.80840222219470
TRITON-1
1 39427U 13066M   17348.53660617  .00000250  00000-0  47674-4 0  9997
2 39427 097.6362 351.7926 0115289 130.5485 230.5829 14.67579432217305
GOMX-1
1 39430U 13066Q   17348.55032544  .00000177  00000-0  41096-4 0  9995
2 39430 097.6781 333.9621 0151332 192.9701 166.7590 14.58988816216045
LO-74
1 39440U 13066AA  17348.56419432  .00000275  00000-0  45188-4 0  9997
2 39440 097.6135 009.6689 0082015 075.3835 285.6451 14.75577557217495
AO-73
1 39444U 13066AE  17348.67438456  .00000332  00000-0  47457-4 0  9995
2 39444  97.6103  23.2478 0059156  36.7552 323.7695 14.81599485218338
SPROUT
1 39770U 14029E   17348.84577544  .00000591  00000-0  72853-4 0  9993
2 39770  97.8765  86.5267 0010632  94.2188 266.0249 14.86581958192970
