Satellite: DO-64
Catalog number: 32789
Epoch time: 17348.247360
Element set: 999
Inclination: 97.537800 deg
RA of node: 42.539800 deg
Eccentricity: 0.001219
Arg of perigee: 203.082500 deg
Mean anomaly: 156.985500 deg
Mean motion: 15.055794 rev/day
Decay rate: 1.866000e-05 rev/day^2
Epoch rev: 5238

Satellite: CO-66
Catalog number: 32791
Epoch time: 17348.519212
Element set: 999
Inclination: 97.549100 deg
RA of node: 9.350100 deg
Eccentricity: 0.001192
Arg of perigee: 273.730600 deg
Mean anomaly: 86.254900 deg
Mean motion: 14.904175 rev/day
Decay rate: 3.480000e-06 rev/day^2
Epoch rev: 5219

Satellite: RS-30
Catalog number: 32953
Epoch time: 17348.810346
Element set: 999
Inclination: 82.501900 deg
RA of node: 127.348100 deg
Eccentricity: 0.001863
Arg of perigee: 250.220700 deg
Mean anomaly: 109.686400 deg
Mean motion: 12.430807 rev/day
Decay rate: 7.000000e-08 rev/day^2
Epoch rev: 4338

Satellite: PRISM
Catalog number: 33493
Epoch time: 17348.643796
Element set: 999
Inclination: 98.146300 deg
RA of node: 238.475600 deg
Eccentricity: 0.001468
Arg of perigee: 202.160900 deg
Mean anomaly: 157.898500 deg
Mean motion: 14.959920 rev/day
Decay rate: 6.050000e-06 rev/day^2
Epoch rev: 4827

Satellite: NOAA-19
Catalog number: 33591
Epoch time: 17348.582436
Element set: 999
Inclination: 99.118100 deg
RA of node: 318.190700 deg
Eccentricity: 0.001474
Arg of perigee: 122.970900 deg
Mean anomaly: 237.288100 deg
Mean motion: 14.122372 rev/day
Decay rate: 9.100000e-07 rev/day^2
Epoch rev: 4561

Satellite: TISAT-1
Catalog number: 36799
Epoch time: 17348.596240
Element set: 999
Inclination: 98.082600 deg
RA of node: 115.248300 deg
Eccentricity: 0.001372
Arg of perigee: 94.986100 deg
Mean anomaly: 265.292200 deg
Mean motion: 14.906365 rev/day
Decay rate: 3.820000e-06 rev/day^2
Epoch rev: 4024

Satellite: JUGNU
Catalog number: 37839
Epoch time: 17348.491232
Element set: 999
Inclination: 19.962000 deg
RA of node: 77.193000 deg
Eccentricity: 0.001907
Arg of perigee: 11.289600 deg
Mean anomaly: 85.398400 deg
Mean motion: 14.126041 rev/day
Decay rate: 3.070000e-06 rev/day^2
Epoch rev: 3191

Satellite: SRMSAT
Catalog number: 37841
Epoch time: 17348.522903
Element set: 999
Inclination: 19.971200 deg
RA of node: 122.396800 deg
Eccentricity: 0.001173
Arg of perigee: 262.477200 deg
Mean anomaly: 164.351200 deg
Mean motion: 14.105943 rev/day
Decay rate: 3.050000e-06 rev/day^2
Epoch rev: 3186

Satellite: AO-71
Catalog number: 37854
Epoch time: 17348.816751
Element set: 999
Inclination: 101.705300 deg
RA of node: 314.368200 deg
Eccentricity: 0.016497
Arg of perigee: 260.045700 deg
Mean anomaly: 98.210100 deg
Mean motion: 15.049291 rev/day
Decay rate: 1.104000e-05 rev/day^2
Epoch rev: 3340

Satellite: HRBE
Catalog number: 37855
Epoch time: 17348.817893
Element set: 999
Inclination: 101.716700 deg
RA of node: 312.051500 deg
Eccentricity: 0.017789
Arg of perigee: 267.654900 deg
Mean anomaly: 90.428600 deg
Mean motion: 15.038987 rev/day
Decay rate: 1.117000e-05 rev/day^2
Epoch rev: 3339

Satellite: ALMASAT-1
Catalog number: 38078
Epoch time: 17348.803186
Element set: 999
Inclination: 69.435500 deg
RA of node: 3.307500 deg
Eccentricity: 0.027521
Arg of perigee: 22.520800 deg
Mean anomaly: 29.292500 deg
Mean motion: 15.310169 rev/day
Decay rate: 3.100400e-04 rev/day^2
Epoch rev: 3123

Satellite: HORYU-2
Catalog number: 38340
Epoch time: 17348.553558
Element set: 999
Inclination: 98.375700 deg
RA of node: 358.845600 deg
Eccentricity: 0.001282
Arg of perigee: 79.917100 deg
Mean anomaly: 280.348300 deg
Mean motion: 14.754651 rev/day
Decay rate: 2.580000e-06 rev/day^2
Epoch rev: 2894

Satellite: RS-40
Catalog number: 38735
Epoch time: 17348.568732
Element set: 999
Inclination: 82.475800 deg
RA of node: 211.715200 deg
Eccentricity: 0.001712
Arg of perigee: 358.180800 deg
Mean anomaly: 1.920700 deg
Mean motion: 12.425758 rev/day
Decay rate: 2.400000e-07 rev/day^2
Epoch rev: 2440

Satellite: BEESAT-3
Catalog number: 39134
Epoch time: 17348.514385
Element set: 999
Inclination: 64.864400 deg
RA of node: 4.045400 deg
Eccentricity: 0.003010
Arg of perigee: 236.311400 deg
Mean anomaly: 123.514200 deg
Mean motion: 15.186148 rev/day
Decay rate: 1.756000e-05 rev/day^2
Epoch rev: 2564

Satellite: BEESAT-2
Catalog number: 39136
Epoch time: 17348.475361
Element set: 999
Inclination: 64.870200 deg
RA of node: 17.477800 deg
Eccentricity: 0.003248
Arg of perigee: 258.264800 deg
Mean anomaly: 101.483300 deg
Mean motion: 15.157163 rev/day
Decay rate: 1.185000e-05 rev/day^2
Epoch rev: 2565

Satellite: ZACUBE-1
Catalog number: 39417
Epoch time: 17348.582793
Element set: 999
Inclination: 97.609000 deg
RA of node: 21.873100 deg
Eccentricity: 0.006011
Arg of perigee: 40.862100 deg
Mean anomaly: 319.707500 deg
Mean motion: 14.808402 rev/day
Decay rate: 2.720000e-06 rev/day^2
Epoch rev: 2194

Satellite: TRITON-1
Catalog number: 39427
Epoch time: 17348.536606
Element set: 999
Inclination: 97.636200 deg
RA of node: 351.792600 deg
Eccentricity: 0.011529
Arg of perigee: 130.548500 deg
Mean anomaly: 230.582900 deg
Mean motion: 14.675794 rev/day
Decay rate: 2.500000e-06 rev/day^2
Epoch rev: 2173

Satellite: GOMX-1
Catalog number: 39430
Epoch time: 17348.550325
Element set: 999
Inclination: 97.678100 deg
RA of node: 333.962100 deg
Eccentricity: 0.015133
Arg of perigee: 192.970100 deg
Mean anomaly: 166.759000 deg
Mean motion: 14.589888 rev/day
Decay rate: 1.770000e-06 rev/day^2
Epoch rev: 2160

Satellite: LO-74
Catalog number: 39440
Epoch time: 17348.564194
Element set: 999
Inclination: 97.613500 deg
RA of node: 9.668900 deg
Eccentricity: 0.008202
Arg of perigee: 75.383500 deg
Mean anomaly: 285.645100 deg
Mean motion: 14.755776 rev/day
Decay rate: 2.750000e-06 rev/day^2
Epoch rev: 2174

Satellite: AO-73
Catalog number: 39444
Epoch time: 17348.674385
Element set: 999
Inclination: 97.610300 deg
RA of node: 23.247800 deg
Eccentricity: 0.005916
Arg of perigee: 36.755200 deg
Mean anomaly: 323.769500 deg
Mean motion: 14.815995 rev/day
Decay rate: 3.320000e-06 rev/day^2
Epoch rev: 2183

Satellite: SPROUT
Catalog number: 39770
Epoch time: 17348.845775
Element set: 999
Inclination: 97.876500 deg
RA of node: 86.526700 deg
Eccentricity: 0.001063
Arg of perigee: 94.218800 deg
Mean anomaly: 266.024900 deg
Mean motion: 14.865820 rev/day
Decay rate: 5.910000e-06 rev/day^2
Epoch rev: 1929

